{
  "type": "FeatureCollection",
  "features": [
    {
      "type": "Feature",
      "properties": {
        "norad_id": 67046,
        "name": "STARLINK-35721",
        "group": "last-30-days",
        "lat": -40.75114592831057,
        "lon": 33.808608837197795,
        "alt_km": 366.9173376484032,
        "timestamp": "2025-12-25T22:42:15.711767+00:00",
        "meta_object_name": "STARLINK-35721",
        "meta_object_id": "2025-294S",
        "meta_epoch": "2025-12-25T18:00:02.000160",
        "meta_mean_motion": 15.68812341,
        "meta_eccentricity": 0.0001297,
        "meta_inclination": 42.9997,
        "meta_ra_of_asc_node": 102.614,
        "meta_arg_of_pericenter": 273.494,
        "meta_mean_anomaly": 345.3251,
        "meta_ephemeris_type": 0,
        "meta_classification_type": "U",
        "meta_norad_cat_id": 67046,
        "meta_element_set_no": 999,
        "meta_rev_at_epoch": 239,
        "meta_bstar": -0.018172,
        "meta_mean_motion_dot": -0.01900841,
        "meta_mean_motion_ddot": 0,
        "tle_line1": "1 67046U 25294S   25359.75002315 -.01900841  00000+0 -18172-1 0  9996",
        "tle_line2": "2 67046  42.9997 102.6140 0001297 273.4940 345.3251 15.68812341  2393"
      },
      "geometry": {
        "type": "Point",
        "coordinates": [
          33.808608837197795,
          -40.75114592831057
        ]
      }
    },
    {
      "type": "Feature",
      "properties": {
        "norad_id": 67047,
        "name": "STARLINK-35779",
        "group": "last-30-days",
        "lat": -40.13771298922037,
        "lon": 36.62227967377607,
        "alt_km": 366.78735333633085,
        "timestamp": "2025-12-25T22:42:15.711776+00:00",
        "meta_object_name": "STARLINK-35779",
        "meta_object_id": "2025-294T",
        "meta_epoch": "2025-12-25T18:00:02.000160",
        "meta_mean_motion": 15.68784921,
        "meta_eccentricity": 0.0001531,
        "meta_inclination": 42.9997,
        "meta_ra_of_asc_node": 102.6086,
        "meta_arg_of_pericenter": 279.0434,
        "meta_mean_anomaly": 342.0287,
        "meta_ephemeris_type": 0,
        "meta_classification_type": "U",
        "meta_norad_cat_id": 67047,
        "meta_element_set_no": 999,
        "meta_rev_at_epoch": 220,
        "meta_bstar": -0.018083,
        "meta_mean_motion_dot": -0.01890846,
        "meta_mean_motion_ddot": 0,
        "tle_line1": "1 67047U 25294T   25359.75002315 -.01890846  00000+0 -18083-1 0  9991",
        "tle_line2": "2 67047  42.9997 102.6086 0001531 279.0434 342.0287 15.68784921  2209"
      },
      "geometry": {
        "type": "Point",
        "coordinates": [
          36.62227967377607,
          -40.13771298922037
        ]
      }
    },
    {
      "type": "Feature",
      "properties": {
        "norad_id": 67048,
        "name": "STARLINK-35905",
        "group": "last-30-days",
        "lat": -39.547822825554896,
        "lon": 39.034435075918765,
        "alt_km": 366.81326116151376,
        "timestamp": "2025-12-25T22:42:15.711788+00:00",
        "meta_object_name": "STARLINK-35905",
        "meta_object_id": "2025-294U",
        "meta_epoch": "2025-12-25T18:00:02.000160",
        "meta_mean_motion": 15.68782122,
        "meta_eccentricity": 0.0001476,
        "meta_inclination": 43,
        "meta_ra_of_asc_node": 102.6042,
        "meta_arg_of_pericenter": 278.7175,
        "meta_mean_anomaly": 344.3057,
        "meta_ephemeris_type": 0,
        "meta_classification_type": "U",
        "meta_norad_cat_id": 67048,
        "meta_element_set_no": 999,
        "meta_rev_at_epoch": 231,
        "meta_bstar": -0.018081,
        "meta_mean_motion_dot": -0.01890395,
        "meta_mean_motion_ddot": 0,
        "tle_line1": "1 67048U 25294U   25359.75002315 -.01890395  00000+0 -18081-1 0  9999",
        "tle_line2": "2 67048  43.0000 102.6042 0001476 278.7175 344.3057 15.68782122  2318"
      },
      "geometry": {
        "type": "Point",
        "coordinates": [
          39.034435075918765,
          -39.547822825554896
        ]
      }
    },
    {
      "type": "Feature",
      "properties": {
        "norad_id": 67049,
        "name": "STARLINK-35877",
        "group": "last-30-days",
        "lat": -38.82511952695066,
        "lon": 41.6972670076329,
        "alt_km": 366.9963727973236,
        "timestamp": "2025-12-25T22:42:15.711798+00:00",
        "meta_object_name": "STARLINK-35877",
        "meta_object_id": "2025-294V",
        "meta_epoch": "2025-12-25T18:00:02.000160",
        "meta_mean_motion": 15.68754015,
        "meta_eccentricity": 0.0001307,
        "meta_inclination": 43.0001,
        "meta_ra_of_asc_node": 102.5986,
        "meta_arg_of_pericenter": 274.0208,
        "meta_mean_anomaly": 351.2135,
        "meta_ephemeris_type": 0,
        "meta_classification_type": "U",
        "meta_norad_cat_id": 67049,
        "meta_element_set_no": 999,
        "meta_rev_at_epoch": 239,
        "meta_bstar": -0.018032,
        "meta_mean_motion_dot": -0.01883753,
        "meta_mean_motion_ddot": 0,
        "tle_line1": "1 67049U 25294V   25359.75002315 -.01883753  00000+0 -18032-1 0  9996",
        "tle_line2": "2 67049  43.0001 102.5986 0001307 274.0208 351.2135 15.68754015  2397"
      },
      "geometry": {
        "type": "Point",
        "coordinates": [
          41.6972670076329,
          -38.82511952695066
        ]
      }
    },
    {
      "type": "Feature",
      "properties": {
        "norad_id": 67050,
        "name": "STARLINK-36078",
        "group": "last-30-days",
        "lat": -38.04403744287747,
        "lon": 44.299949268480525,
        "alt_km": 366.84511483594815,
        "timestamp": "2025-12-25T22:42:15.711808+00:00",
        "meta_object_name": "STARLINK-36078",
        "meta_object_id": "2025-294W",
        "meta_epoch": "2025-12-25T18:00:02.000160",
        "meta_mean_motion": 15.68745501,
        "meta_eccentricity": 0.0001516,
        "meta_inclination": 43,
        "meta_ra_of_asc_node": 102.5927,
        "meta_arg_of_pericenter": 277.9904,
        "meta_mean_anomaly": 349.4416,
        "meta_ephemeris_type": 0,
        "meta_classification_type": "U",
        "meta_norad_cat_id": 67050,
        "meta_element_set_no": 999,
        "meta_rev_at_epoch": 231,
        "meta_bstar": -0.01811,
        "meta_mean_motion_dot": -0.01890555,
        "meta_mean_motion_ddot": 0,
        "tle_line1": "1 67050U 25294W   25359.75002315 -.01890555  00000+0 -18110-1 0  9993",
        "tle_line2": "2 67050  43.0000 102.5927 0001516 277.9904 349.4416 15.68745501  2313"
      },
      "geometry": {
        "type": "Point",
        "coordinates": [
          44.299949268480525,
          -38.04403744287747
        ]
      }
    },
    {
      "type": "Feature",
      "properties": {
        "norad_id": 67051,
        "name": "STARLINK-35706",
        "group": "last-30-days",
        "lat": -37.20733522253414,
        "lon": 46.84386933862089,
        "alt_km": 366.8758549640406,
        "timestamp": "2025-12-25T22:42:15.711818+00:00",
        "meta_object_name": "STARLINK-35706",
        "meta_object_id": "2025-294X",
        "meta_epoch": "2025-12-25T18:00:02.000160",
        "meta_mean_motion": 15.68727473,
        "meta_eccentricity": 0.0001525,
        "meta_inclination": 43,
        "meta_ra_of_asc_node": 102.587,
        "meta_arg_of_pericenter": 276.0994,
        "meta_mean_anomaly": 353.5328,
        "meta_ephemeris_type": 0,
        "meta_classification_type": "U",
        "meta_norad_cat_id": 67051,
        "meta_element_set_no": 999,
        "meta_rev_at_epoch": 239,
        "meta_bstar": -0.018125,
        "meta_mean_motion_dot": -0.01890689,
        "meta_mean_motion_ddot": 0,
        "tle_line1": "1 67051U 25294X   25359.75002315 -.01890689  00000+0 -18125-1 0  9998",
        "tle_line2": "2 67051  43.0000 102.5870 0001525 276.0994 353.5328 15.68727473  2394"
      },
      "geometry": {
        "type": "Point",
        "coordinates": [
          46.84386933862089,
          -37.20733522253414
        ]
      }
    },
    {
      "type": "Feature",
      "properties": {
        "norad_id": 67052,
        "name": "STARLINK-35720",
        "group": "last-30-days",
        "lat": -36.411416975937364,
        "lon": 49.07689613633752,
        "alt_km": 366.81700576593175,
        "timestamp": "2025-12-25T22:42:15.711827+00:00",
        "meta_object_name": "STARLINK-35720",
        "meta_object_id": "2025-294Y",
        "meta_epoch": "2025-12-25T18:00:02.000160",
        "meta_mean_motion": 15.68726049,
        "meta_eccentricity": 0.0001563,
        "meta_inclination": 43.0001,
        "meta_ra_of_asc_node": 102.5822,
        "meta_arg_of_pericenter": 278.0316,
        "meta_mean_anomaly": 353.5649,
        "meta_ephemeris_type": 0,
        "meta_classification_type": "U",
        "meta_norad_cat_id": 67052,
        "meta_element_set_no": 999,
        "meta_rev_at_epoch": 238,
        "meta_bstar": -0.018141,
        "meta_mean_motion_dot": -0.01892127,
        "meta_mean_motion_ddot": 0,
        "tle_line1": "1 67052U 25294Y   25359.75002315 -.01892127  00000+0 -18141-1 0  9996",
        "tle_line2": "2 67052  43.0001 102.5822 0001563 278.0316 353.5649 15.68726049  2388"
      },
      "geometry": {
        "type": "Point",
        "coordinates": [
          49.07689613633752,
          -36.411416975937364
        ]
      }
    }
  ]
}